{"type": "FeatureCollection", "features": [ {"type": "Feature", "properties": {"norad_id": 33153, "name": "INTELSAT 25 (IS-25)", "group": "intelsat", "lat": -1.6747888523415262, "lon": -50.07513160208, "alt_km": 35771.193528799464, "timestamp": "2025-12-20T16:47:35.958788+00:00", "meta": {"OBJECT_NAME": "INTELSAT 25 (IS-25)", "OBJECT_ID": "2008-034A", "EPOCH": "2025-12-20T06:13:56.324352", "MEAN_MOTION": 1.0027013, "ECCENTRICITY": 0.0004802, "INCLINATION": 2.2459, "RA_OF_ASC_NODE": 82.5699, "ARG_OF_PERICENTER": 187.4291, "MEAN_ANOMALY": 241.0715, "EPHEMERIS_TYPE": 0, "CLASSIFICATION_TYPE": "U", "NORAD_CAT_ID": 33153, "ELEMENT_SET_NO": 999, "REV_AT_EPOCH": 6390, "BSTAR": 0, "MEAN_MOTION_DOT": -2.02e-06, "MEAN_MOTION_DDOT": 0}, "tle": {"line1": "1 33153U 08034A   25354.25967968 -.00000202  00000+0  00000+0 0  9994", "line2": "2 33153   2.2459  82.5699 0004802 187.4291 241.0715  1.00270130 63906"}}, "geometry": {"type": "Point", "coordinates": [-50.07513160208, -1.6747888523415262]}}, {"type": "Feature", "properties": {"norad_id": 33376, "name": "GALAXY 19 (G-19)", "group": "intelsat", "lat": -0.031550860090486084, "lon": -115.59406420693195, "alt_km": 35776.90855400493, "timestamp": "2025-12-20T16:47:35.958816+00:00", "meta": {"OBJECT_NAME": "GALAXY 19 (G-19)", "OBJECT_ID": "2008-045A", "EPOCH": "2025-12-20T11:54:28.451232", "MEAN_MOTION": 1.00271451, "ECCENTRICITY": 0.000252, "INCLINATION": 0.0143, "RA_OF_ASC_NODE": 306.9474, "ARG_OF_PERICENTER": 327.2001, "MEAN_ANOMALY": 256.8006, "EPHEMERIS_TYPE": 0, "CLASSIFICATION_TYPE": "U", "NORAD_CAT_ID": 33376, "ELEMENT_SET_NO": 999, "REV_AT_EPOCH": 6311, "BSTAR": 0, "MEAN_MOTION_DOT": -1.15e-06, "MEAN_MOTION_DDOT": 0}, "tle": {"line1": "1 33376U 08045A   25354.49616263 -.00000115  00000+0  00000+0 0  9991", "line2": "2 33376   0.0143 306.9474 0002520 327.2001 256.8006  1.00271451 63118"}}, "geometry": {"type": "Point", "coordinates": [-115.59406420693195, -0.031550860090486084]}}, {"type": "Feature", "properties": {"norad_id": 35493, "name": "FM-5", "group": "intelsat", "lat": -0.030606143803766576, "lon": -104.71115660165643, "alt_km": 35791.62733172231, "timestamp": "2025-12-20T16:47:35.958831+00:00", "meta": {"OBJECT_NAME": "FM-5", "OBJECT_ID": "2009-034A", "EPOCH": "2025-12-20T11:23:10.390848", "MEAN_MOTION": 1.00258882, "ECCENTRICITY": 0.0001816, "INCLINATION": 0.0239, "RA_OF_ASC_NODE": 289.6726, "ARG_OF_PERICENTER": 221.3816, "MEAN_ANOMALY": 22.9059, "EPHEMERIS_TYPE": 0, "CLASSIFICATION_TYPE": "U", "NORAD_CAT_ID": 35493, "ELEMENT_SET_NO": 999, "REV_AT_EPOCH": 4485, "BSTAR": 0, "MEAN_MOTION_DOT": -1.75e-06, "MEAN_MOTION_DDOT": 0}, "tle": {"line1": "1 35493U 09034A   25354.47442582 -.00000175  00000+0  00000+0 0  9997", "line2": "2 35493   0.0239 289.6726 0001816 221.3816  22.9059  1.00258882 44851"}}, "geometry": {"type": "Point", "coordinates": [-104.71115660165643, -0.030606143803766576]}}, {"type": "Feature", "properties": {"norad_id": 36097, "name": "INTELSAT 14 (IS-14)", "group": "intelsat", "lat": -0.03585238110023651, "lon": -63.5624551759343, "alt_km": 35776.370091199366, "timestamp": "2025-12-20T16:47:35.958844+00:00", "meta": {"OBJECT_NAME": "INTELSAT 14 (IS-14)", "OBJECT_ID": "2009-064A", "EPOCH": "2025-12-20T06:10:04.195200", "MEAN_MOTION": 1.00271027, "ECCENTRICITY": 0.0002452, "INCLINATION": 0.0127, "RA_OF_ASC_NODE": 0.8859, "ARG_OF_PERICENTER": 279.4888, "MEAN_ANOMALY": 216.2469, "EPHEMERIS_TYPE": 0, "CLASSIFICATION_TYPE": "U", "NORAD_CAT_ID": 36097, "ELEMENT_SET_NO": 999, "REV_AT_EPOCH": 5881, "BSTAR": 0, "MEAN_MOTION_DOT": -2.5e-06, "MEAN_MOTION_DDOT": 0}, "tle": {"line1": "1 36097U 09064A   25354.25699300 -.00000250  00000+0  00000+0 0  9993", "line2": "2 36097   0.0127   0.8859 0002452 279.4888 216.2469  1.00271027 58818"}}, "geometry": {"type": "Point", "coordinates": [-63.5624551759343, -0.03585238110023651]}}, {"type": "Feature", "properties": {"norad_id": 36106, "name": "INTELSAT 15 (IS-15)", "group": "intelsat", "lat": 0.02670741701610916, "lon": 66.59601274317538, "alt_km": 35793.583249681906, "timestamp": "2025-12-20T16:47:35.958856+00:00", "meta": {"OBJECT_NAME": "INTELSAT 15 (IS-15)", "OBJECT_ID": "2009-067A", "EPOCH": "2025-12-20T08:29:50.808192", "MEAN_MOTION": 1.00272009, "ECCENTRICITY": 0.0002132, "INCLINATION": 0.0088, "RA_OF_ASC_NODE": 26.4946, "ARG_OF_PERICENTER": 253.5637, "MEAN_ANOMALY": 21.7545, "EPHEMERIS_TYPE": 0, "CLASSIFICATION_TYPE": "U", "NORAD_CAT_ID": 36106, "ELEMENT_SET_NO": 999, "REV_AT_EPOCH": 3943, "BSTAR": 0, "MEAN_MOTION_DOT": -1.62e-06, "MEAN_MOTION_DDOT": 0}, "tle": {"line1": "1 36106U 09067A   25354.35406028 -.00000162  00000+0  00000+0 0  9993", "line2": "2 36106   0.0088  26.4946 0002132 253.5637  21.7545  1.00272009 39438"}}, "geometry": {"type": "Point", "coordinates": [66.59601274317538, 0.02670741701610916]}}, {"type": "Feature", "properties": {"norad_id": 36131, "name": "DIRECTV 12", "group": "intelsat", "lat": -0.014371574225261394, "lon": -121.29150923898762, "alt_km": 35784.94216565299, "timestamp": "2025-12-20T16:47:35.958868+00:00", "meta": {"OBJECT_NAME": "DIRECTV 12", "OBJECT_ID": "2009-075A", "EPOCH": "2025-12-20T12:06:43.360128", "MEAN_MOTION": 1.00275526, "ECCENTRICITY": 5.06e-05, "INCLINATION": 0.0134, "RA_OF_ASC_NODE": 57.4464, "ARG_OF_PERICENTER": 268.8941, "MEAN_ANOMALY": 201.9691, "EPHEMERIS_TYPE": 0, "CLASSIFICATION_TYPE": "U", "NORAD_CAT_ID": 36131, "ELEMENT_SET_NO": 999, "REV_AT_EPOCH": 4476, "BSTAR": 0, "MEAN_MOTION_DOT": -8.1e-07, "MEAN_MOTION_DDOT": 0}, "tle": {"line1": "1 36131U 09075A   25354.50466852 -.00000081  00000+0  00000+0 0  9998", "line2": "2 36131   0.0134  57.4464 0000506 268.8941 201.9691  1.00275526 44760"}}, "geometry": {"type": "Point", "coordinates": [-121.29150923898762, -0.014371574225261394]}}, {"type": "Feature", "properties": {"norad_id": 36397, "name": "INTELSAT 16 (IS-16)", "group": "intelsat", "lat": -0.03818682211374728, "lon": -94.76491012086014, "alt_km": 35775.54099550903, "timestamp": "2025-12-20T16:47:35.958880+00:00", "meta": {"OBJECT_NAME": "INTELSAT 16 (IS-16)", "OBJECT_ID": "2010-006A", "EPOCH": "2025-12-20T11:26:34.478016", "MEAN_MOTION": 1.00277419, "ECCENTRICITY": 0.0002148, "INCLINATION": 0.0116, "RA_OF_ASC_NODE": 344.1839, "ARG_OF_PERICENTER": 290.2193, "MEAN_ANOMALY": 270.3649, "EPHEMERIS_TYPE": 0, "CLASSIFICATION_TYPE": "U", "NORAD_CAT_ID": 36397, "ELEMENT_SET_NO": 999, "REV_AT_EPOCH": 5786, "BSTAR": 0, "MEAN_MOTION_DOT": -2.21e-06, "MEAN_MOTION_DDOT": 0}, "tle": {"line1": "1 36397U 10006A   25354.47678794 -.00000221  00000+0  00000+0 0  9990", "line2": "2 36397   0.0116 344.1839 0002148 290.2193 270.3649  1.00277419 57869"}}, "geometry": {"type": "Point", "coordinates": [-94.76491012086014, -0.03818682211374728]}}, {"type": "Feature", "properties": {"norad_id": 37185, "name": "XM-5", "group": "intelsat", "lat": -0.06087681781651146, "lon": -133.7326327097458, "alt_km": 35780.31999749375, "timestamp": "2025-12-20T16:47:35.958892+00:00", "meta": {"OBJECT_NAME": "XM-5", "OBJECT_ID": "2010-053A", "EPOCH": "2025-12-20T11:05:14.664192", "MEAN_MOTION": 1.00280251, "ECCENTRICITY": 0.0002037, "INCLINATION": 0.0654, "RA_OF_ASC_NODE": 270.4731, "ARG_OF_PERICENTER": 249.32, "MEAN_ANOMALY": 340.6321, "EPHEMERIS_TYPE": 0, "CLASSIFICATION_TYPE": "U", "NORAD_CAT_ID": 37185, "ELEMENT_SET_NO": 999, "REV_AT_EPOCH": 5569, "BSTAR": 0, "MEAN_MOTION_DOT": -1e-08, "MEAN_MOTION_DDOT": 0}, "tle": {"line1": "1 37185U 10053A   25354.46197528 -.00000001  00000+0  00000+0 0  9994", "line2": "2 37185   0.0654 270.4731 0002037 249.3200 340.6321  1.00280251 55690"}}, "geometry": {"type": "Point", "coordinates": [-133.7326327097458, -0.06087681781651146]}}, {"type": "Feature", "properties": {"norad_id": 37238, "name": "INTELSAT 17 (IS-17)", "group": "intelsat", "lat": 0.0003931199844676049, "lon": 47.453285864544576, "alt_km": 35791.699996801624, "timestamp": "2025-12-20T16:47:35.958904+00:00", "meta": {"OBJECT_NAME": "INTELSAT 17 (IS-17)", "OBJECT_ID": "2010-065B", "EPOCH": "2025-12-20T10:07:11.485344", "MEAN_MOTION": 1.00270848, "ECCENTRICITY": 0.0002784, "INCLINATION": 0.0043, "RA_OF_ASC_NODE": 96.3175, "ARG_OF_PERICENTER": 194.2403, "MEAN_ANOMALY": 16.5012, "EPHEMERIS_TYPE": 0, "CLASSIFICATION_TYPE": "U", "NORAD_CAT_ID": 37238, "ELEMENT_SET_NO": 999, "REV_AT_EPOCH": 5145, "BSTAR": 0, "MEAN_MOTION_DOT": 2.2e-07, "MEAN_MOTION_DDOT": 0}, "tle": {"line1": "1 37238U 10065B   25354.42166071  .00000022  00000+0  00000+0 0  9993", "line2": "2 37238   0.0043  96.3175 0002784 194.2403  16.5012  1.00270848 51457"}}, "geometry": {"type": "Point", "coordinates": [47.453285864544576, 0.0003931199844676049]}}, {"type": "Feature", "properties": {"norad_id": 37392, "name": "INTELSAT 28 (IS-28)", "group": "intelsat", "lat": -0.9676005234770816, "lon": -50.255946766669005, "alt_km": 35774.289528735404, "timestamp": "2025-12-20T16:47:35.958929+00:00", "meta": {"OBJECT_NAME": "INTELSAT 28 (IS-28)", "OBJECT_ID": "2011-016A", "EPOCH": "2025-12-20T06:13:56.324352", "MEAN_MOTION": 1.00269977, "ECCENTRICITY": 0.0003683, "INCLINATION": 1.3429, "RA_OF_ASC_NODE": 84.976, "ARG_OF_PERICENTER": 187.7654, "MEAN_ANOMALY": 238.1459, "EPHEMERIS_TYPE": 0, "CLASSIFICATION_TYPE": "U", "NORAD_CAT_ID": 37392, "ELEMENT_SET_NO": 999, "REV_AT_EPOCH": 5149, "BSTAR": 0, "MEAN_MOTION_DOT": -2.02e-06, "MEAN_MOTION_DDOT": 0}, "tle": {"line1": "1 37392U 11016A   25354.25967968 -.00000202  00000+0  00000+0 0  9997", "line2": "2 37392   1.3429  84.9760 0003683 187.7654 238.1459  1.00269977 51499"}}, "geometry": {"type": "Point", "coordinates": [-50.255946766669005, -0.9676005234770816]}}]}